[{"OBJECT_NAME":"STARLINK-1640","OBJECT_ID":"2020-057BJ","EPOCH":"2026-03-10T00:00:02.999808","MEAN_MOTION":15.53857916,"ECCENTRICITY":0.00082651,"INCLINATION":53.0515,"RA_OF_ASC_NODE":297.5988,"ARG_OF_PERICENTER":141.807,"MEAN_ANOMALY":35.0921,"EPHEMERIS_TYPE":0,"CLASSIFICATION_TYPE":"U","NORAD_CAT_ID":46173,"ELEMENT_SET_NO":999,"REV_AT_EPOCH":581,"BSTAR":0.0024555453,"MEAN_MOTION_DOT":0.00163818,"MEAN_MOTION_DDOT":0},{"OBJECT_NAME":"STARLINK-36622","OBJECT_ID":"2026-022V","EPOCH":"2026-03-09T22:00:01.999584","MEAN_MOTION":15.69875999,"ECCENTRICITY":0.00019906,"INCLINATION":97.2852,"RA_OF_ASC_NODE":102.9397,"ARG_OF_PERICENTER":67.1227,"MEAN_ANOMALY":52.5023,"EPHEMERIS_TYPE":0,"CLASSIFICATION_TYPE":"U","NORAD_CAT_ID":67667,"ELEMENT_SET_NO":999,"REV_AT_EPOCH":608,"BSTAR":-0.01804978,"MEAN_MOTION_DOT":-0.0187312,"MEAN_MOTION_DDOT":0}]
